start=new Date('2022-06-02T00:00:00.000Z').valueOf();
sats=[{"MEAN_MOTION_DOT":"-0.00719011","CENTER_NAME":"EARTH","RA_OF_ASC_NODE":"61.6188","INCLINATION":"53.2177","TIME_SYSTEM":"UTC","RCS_SIZE":"LARGE","FILE":"3476255","MEAN_MOTION":"15.34839531","SITE":"AFETR","DECAY_DATE":null,"OBJECT_NAME":"STARLINK-3551","EPOCH":"2022-06-01T20:00:01.000224","REF_FRAME":"TEME","EPHEMERIS_TYPE":"0","REV_AT_EPOCH":"130","OBJECT_ID":"2022-022AM","LAUNCH_DATE":"2022-03-03","OBJECT_TYPE":"PAYLOAD","TLE_LINE2":"2 51887  53.2177  61.6188 0001491  47.5787 273.5921 15.34839531  1304","ARG_OF_PERICENTER":"47.5787","BSTAR":"-0.02272700000000","PERIOD":"93.821","APOAPSIS":"462.419","CLASSIFICATION_TYPE":"U","PERIAPSIS":"460.379","TLE_LINE1":"1 51887U 22022AM  22152.83334491 -.00719011  00000-0 -22727-1 0  9996","MEAN_MOTION_DDOT":"0.0000000000000","ECCENTRICITY":"0.00014910","GP_ID":"205128148","SEMIMAJOR_AXIS":"6839.534","COUNTRY_CODE":"US","MEAN_ANOMALY":"273.5921","MEAN_ELEMENT_THEORY":"SGP4","ELEMENT_SET_NO":"999","NORAD_CAT_ID":"51887"},{"MEAN_MOTION_DOT":"-0.00718535","CENTER_NAME":"EARTH","RA_OF_ASC_NODE":"61.6022","TIME_SYSTEM":"UTC","RCS_SIZE":"LARGE","INCLINATION":"53.2177","FILE":"3476255","MEAN_MOTION":"15.34443373","SITE":"AFETR","DECAY_DATE":null,"REF_FRAME":"TEME","EPHEMERIS_TYPE":"0","EPOCH":"2022-06-01T20:00:01.000224","OBJECT_NAME":"STARLINK-3536","LAUNCH_DATE":"2022-03-03","REV_AT_EPOCH":"130","OBJECT_ID":"2022-022AN","OBJECT_TYPE":"PAYLOAD","ARG_OF_PERICENTER":"54.3962","TLE_LINE2":"2 51888  53.2177  61.6022 0001443  54.3962 250.8223 15.34443373  1308","PERIOD":"93.845","BSTAR":"-0.02300100000000","PERIAPSIS":"461.589","APOAPSIS":"463.563","CLASSIFICATION_TYPE":"U","TLE_LINE1":"1 51888U 22022AN  22152.83334491 -.00718535  00000-0 -23001-1 0  9993","MEAN_MOTION_DDOT":"0.0000000000000","ECCENTRICITY":"0.00014430","SEMIMAJOR_AXIS":"6840.711","GP_ID":"205128018","COUNTRY_CODE":"US","NORAD_CAT_ID":"51888","ELEMENT_SET_NO":"999","MEAN_ELEMENT_THEORY":"SGP4","MEAN_ANOMALY":"250.8223"},{"PERIAPSIS":"458.709","APOAPSIS":"460.561","CLASSIFICATION_TYPE":"U","PERIOD":"93.785","BSTAR":"-0.02231700000000","ARG_OF_PERICENTER":"54.7530","TLE_LINE2":"2 51889  53.2177  61.6431 0001354  54.7530 289.6550 15.35433659  1309","OBJECT_TYPE":"PAYLOAD","ELEMENT_SET_NO":"999","NORAD_CAT_ID":"51889","MEAN_ANOMALY":"289.6550","MEAN_ELEMENT_THEORY":"SGP4","COUNTRY_CODE":"US","GP_ID":"205127700","SEMIMAJOR_AXIS":"6837.770","TLE_LINE1":"1 51889U 22022AP  22152.83334491 -.00719582  00000-0 -22317-1 0  9996","ECCENTRICITY":"0.00013540","MEAN_MOTION_DDOT":"0.0000000000000","FILE":"3476255","MEAN_MOTION":"15.35433659","INCLINATION":"53.2177","RCS_SIZE":"LARGE","TIME_SYSTEM":"UTC","RA_OF_ASC_NODE":"61.6431","CENTER_NAME":"EARTH","MEAN_MOTION_DOT":"-0.00719582","REV_AT_EPOCH":"130","OBJECT_ID":"2022-022AP","LAUNCH_DATE":"2022-03-03","EPOCH":"2022-06-01T20:00:01.000224","EPHEMERIS_TYPE":"0","REF_FRAME":"TEME","OBJECT_NAME":"STARLINK-3547","DECAY_DATE":null,"SITE":"AFETR"},{"ARG_OF_PERICENTER":"60.4530","TLE_LINE2":"2 51890  53.2177  61.6269 0001318  60.4530 268.5558 15.35037510  1304","OBJECT_TYPE":"PAYLOAD","PERIAPSIS":"459.910","CLASSIFICATION_TYPE":"U","APOAPSIS":"461.712","PERIOD":"93.809","BSTAR":"-0.02258700000000","SEMIMAJOR_AXIS":"6838.946","GP_ID":"205128253","MEAN_MOTION_DDOT":"0.0000000000000","TLE_LINE1":"1 51890U 22022AQ  22152.83334491 -.00719103  00000-0 -22587-1 0  9996","ECCENTRICITY":"0.00013180","NORAD_CAT_ID":"51890","ELEMENT_SET_NO":"999","MEAN_ELEMENT_THEORY":"SGP4","MEAN_ANOMALY":"268.5558","COUNTRY_CODE":"US","RA_OF_ASC_NODE":"61.6269","CENTER_NAME":"EARTH","MEAN_MOTION_DOT":"-0.00719103","FILE":"3476255","MEAN_MOTION":"15.35037510","TIME_SYSTEM":"UTC","RCS_SIZE":"LARGE","INCLINATION":"53.2177","DECAY_DATE":null,"SITE":"AFETR","LAUNCH_DATE":"2022-03-03","REV_AT_EPOCH":"130","OBJECT_ID":"2022-022AQ","EPHEMERIS_TYPE":"0","REF_FRAME":"TEME","EPOCH":"2022-06-01T20:00:01.000224","OBJECT_NAME":"STARLINK-3519"},{"TLE_LINE1":"1 51891U 22022AR  22152.83334491 -.00719685  00000-0 -22179-1 0  9999","ECCENTRICITY":"0.00012490","MEAN_MOTION_DDOT":"0.0000000000000","SEMIMAJOR_AXIS":"6837.182","GP_ID":"205127806","COUNTRY_CODE":"US","MEAN_ELEMENT_THEORY":"SGP4","MEAN_ANOMALY":"286.4646","NORAD_CAT_ID":"51891","ELEMENT_SET_NO":"999","OBJECT_TYPE":"PAYLOAD","TLE_LINE2":"2 51891  53.2177  61.6511 0001249  65.5048 286.4646 15.35631627  1304","ARG_OF_PERICENTER":"65.5048","BSTAR":"-0.02217900000000","PERIOD":"93.772","APOAPSIS":"459.901","CLASSIFICATION_TYPE":"U","PERIAPSIS":"458.193","SITE":"AFETR","DECAY_DATE":null,"OBJECT_NAME":"STARLINK-3549","EPHEMERIS_TYPE":"0","REF_FRAME":"TEME","EPOCH":"2022-06-01T20:00:01.000224","LAUNCH_DATE":"2022-03-03","REV_AT_EPOCH":"130","OBJECT_ID":"2022-022AR","CENTER_NAME":"EARTH","MEAN_MOTION_DOT":"-0.00719685","RA_OF_ASC_NODE":"61.6511","RCS_SIZE":"LARGE","TIME_SYSTEM":"UTC","INCLINATION":"53.2177","FILE":"3476255","MEAN_MOTION":"15.35631627"},{"OBJECT_TYPE":"PAYLOAD","ARG_OF_PERICENTER":"62.5629","TLE_LINE2":"2 51892  53.2177  61.6350 0001294  62.5629 274.1916 15.35235638  1304","PERIOD":"93.797","BSTAR":"-0.02245500000000","PERIAPSIS":"459.338","APOAPSIS":"461.108","CLASSIFICATION_TYPE":"U","TLE_LINE1":"1 51892U 22022AS  22152.83334491 -.00719437  00000-0 -22455-1 0  9992","MEAN_MOTION_DDOT":"0.0000000000000","ECCENTRICITY":"0.00012940","SEMIMAJOR_AXIS":"6838.358","GP_ID":"205127676","COUNTRY_CODE":"US","NORAD_CAT_ID":"51892","ELEMENT_SET_NO":"999","MEAN_ELEMENT_THEORY":"SGP4","MEAN_ANOMALY":"274.1916","MEAN_MOTION_DOT":"-0.00719437","CENTER_NAME":"EARTH","RA_OF_ASC_NODE":"61.6350","RCS_SIZE":"LARGE","TIME_SYSTEM":"UTC","INCLINATION":"53.2177","MEAN_MOTION":"15.35235638","FILE":"3476255","SITE":"AFETR","DECAY_DATE":null,"REF_FRAME":"TEME","EPHEMERIS_TYPE":"0","EPOCH":"2022-06-01T20:00:01.000224","OBJECT_NAME":"STARLINK-3587","LAUNCH_DATE":"2022-03-03","REV_AT_EPOCH":"130","OBJECT_ID":"2022-022AS"},{"PERIOD":"93.748","BSTAR":"-0.02190200000000","PERIAPSIS":"457.091","APOAPSIS":"458.653","CLASSIFICATION_TYPE":"U","OBJECT_TYPE":"PAYLOAD","ARG_OF_PERICENTER":"82.5407","TLE_LINE2":"2 51893  53.2177  61.6670 0001143  82.5407 284.2749 15.36027576  1306","COUNTRY_CODE":"US","ELEMENT_SET_NO":"999","NORAD_CAT_ID":"51893","MEAN_ANOMALY":"284.2749","MEAN_ELEMENT_THEORY":"SGP4","TLE_LINE1":"1 51893U 22022AT  22152.83334491 -.00719813  00000-0 -21902-1 0  9997","MEAN_MOTION_DDOT":"0.0000000000000","ECCENTRICITY":"0.00011430","SEMIMAJOR_AXIS":"6836.007","GP_ID":"205128043","INCLINATION":"53.2177","TIME_SYSTEM":"UTC","RCS_SIZE":"LARGE","MEAN_MOTION":"15.36027576","FILE":"3476255","CENTER_NAME":"EARTH","MEAN_MOTION_DOT":"-0.00719813","RA_OF_ASC_NODE":"61.6670","EPOCH":"2022-06-01T20:00:01.000224","REF_FRAME":"TEME","EPHEMERIS_TYPE":"0","OBJECT_NAME":"STARLINK-3579","REV_AT_EPOCH":"130","OBJECT_ID":"2022-022AT","LAUNCH_DATE":"2022-03-03","SITE":"AFETR","DECAY_DATE":null},{"PERIOD":"93.760","BSTAR":"-0.02204800000000","PERIAPSIS":"457.549","APOAPSIS":"459.369","CLASSIFICATION_TYPE":"U","OBJECT_TYPE":"PAYLOAD","ARG_OF_PERICENTER":"54.2848","TLE_LINE2":"2 51894  53.2177  61.6590 0001331  54.2848 305.1537 15.35829743  1305","COUNTRY_CODE":"US","ELEMENT_SET_NO":"999","NORAD_CAT_ID":"51894","MEAN_ANOMALY":"305.1537","MEAN_ELEMENT_THEORY":"SGP4","MEAN_MOTION_DDOT":"0.0000000000000","TLE_LINE1":"1 51894U 22022AU  22152.83334491 -.00720007  00000-0 -22048-1 0  9997","ECCENTRICITY":"0.00013310","GP_ID":"205127911","SEMIMAJOR_AXIS":"6836.594","INCLINATION":"53.2177","TIME_SYSTEM":"UTC","RCS_SIZE":"LARGE","FILE":"3476255","MEAN_MOTION":"15.35829743","CENTER_NAME":"EARTH","MEAN_MOTION_DOT":"-0.00720007","RA_OF_ASC_NODE":"61.6590","EPOCH":"2022-06-01T20:00:01.000224","EPHEMERIS_TYPE":"0","REF_FRAME":"TEME","OBJECT_NAME":"STARLINK-3595","REV_AT_EPOCH":"130","OBJECT_ID":"2022-022AU","LAUNCH_DATE":"2022-03-03","SITE":"AFETR","DECAY_DATE":null},{"OBJECT_NAME":"STARLINK-3594","REF_FRAME":"TEME","EPHEMERIS_TYPE":"0","EPOCH":"2022-06-01T20:00:01.000224","LAUNCH_DATE":"2022-03-03","REV_AT_EPOCH":"130","OBJECT_ID":"2022-022AV","SITE":"AFETR","DECAY_DATE":null,"RCS_SIZE":"LARGE","TIME_SYSTEM":"UTC","INCLINATION":"53.2177","MEAN_MOTION":"15.36216669","FILE":"3476255","CENTER_NAME":"EARTH","MEAN_MOTION_DOT":"-0.00720183","RA_OF_ASC_NODE":"61.6737","COUNTRY_CODE":"US","MEAN_ELEMENT_THEORY":"SGP4","MEAN_ANOMALY":"315.5643","NORAD_CAT_ID":"51895","ELEMENT_SET_NO":"999","TLE_LINE1":"1 51895U 22022AV  22152.83334491 -.00720183  00000-0 -21780-1 0  9995","MEAN_MOTION_DDOT":"0.0000000000000","ECCENTRICITY":"0.00012720","SEMIMAJOR_AXIS":"6835.446","GP_ID":"205128149","BSTAR":"-0.02178000000000","PERIOD":"93.737","CLASSIFICATION_TYPE":"U","APOAPSIS":"458.181","PERIAPSIS":"456.442","OBJECT_TYPE":"PAYLOAD","TLE_LINE2":"2 51895  53.2177  61.6737 0001272  59.1164 315.5643 15.36216669  1309","ARG_OF_PERICENTER":"59.1164"},{"OBJECT_TYPE":"PAYLOAD","TLE_LINE2":"2 51896  53.2176  61.6723 0001340  53.2587 319.1070 15.36171907  1303","ARG_OF_PERICENTER":"53.2587","BSTAR":"-0.02181200000000","PERIOD":"93.740","APOAPSIS":"458.360","CLASSIFICATION_TYPE":"U","PERIAPSIS":"456.528","TLE_LINE1":"1 51896U 22022AW  22152.83334491 -.00720205  00000-0 -21812-1 0  9997","ECCENTRICITY":"0.00013400","MEAN_MOTION_DDOT":"0.0000000000000","SEMIMAJOR_AXIS":"6835.579","GP_ID":"205128019","COUNTRY_CODE":"US","MEAN_ELEMENT_THEORY":"SGP4","MEAN_ANOMALY":"319.1070","NORAD_CAT_ID":"51896","ELEMENT_SET_NO":"999","MEAN_MOTION_DOT":"-0.00720205","CENTER_NAME":"EARTH","RA_OF_ASC_NODE":"61.6723","RCS_SIZE":"LARGE","TIME_SYSTEM":"UTC","INCLINATION":"53.2176","FILE":"3476255","MEAN_MOTION":"15.36171907","SITE":"AFETR","DECAY_DATE":null,"OBJECT_NAME":"STARLINK-3593","REF_FRAME":"TEME","EPHEMERIS_TYPE":"0","EPOCH":"2022-06-01T20:00:01.000224","LAUNCH_DATE":"2022-03-03","REV_AT_EPOCH":"130","OBJECT_ID":"2022-022AW"}];
